NORAD_CAT_ID,OBJECT_NAME,OBJECT_TYPE,EPOCH,MEAN_MOTION,ECCENTRICITY,INCLINATION,RA_OF_ASC_NODE,ARG_OF_PERICENTER,MEAN_ANOMALY,BSTAR,MEAN_MOTION_DOT,MEAN_MOTION_DDOT,TLE_LINE0,TLE_LINE1,TLE_LINE2,SEMIMAJOR_AXIS,PERIOD,APOGEE,PERIGEE,DECAYED
53722.0,STARLINK-4700,PAYLOAD,2024-05-14 15:00:27,15.08863695,0.0001543,53.2176,355.1342,109.4472,250.6687,0.0011907,0.00018725,0.0,0 STARLINK-4700,1 53722U 22107Y   24135.62531263  .00018725  00000-0  11907-2 0  9997,2 53722  53.2176 355.1342 0001543 109.4472 250.6687 15.08863695 94152,6917.808,95.436,540.74,538.606,0.0
53722.0,STARLINK-4700,PAYLOAD,2024-05-14 21:21:58,15.08888785,0.0001427,53.2168,353.945,108.4462,251.6686,0.0017187,0.00027208,0.0,0 STARLINK-4700,1 53722U 22107Y   24135.89026392  .00027208  00000-0  17187-2 0  9990,2 53722  53.2168 353.9450 0001427 108.4462 251.6686 15.08888785 94199,6917.731,95.434,540.583,538.609,0.0
53722.0,STARLINK-4700,PAYLOAD,2024-05-15 21:12:45,15.08858986,0.0001146,53.2166,349.4836,85.8707,274.2416,0.00061476,9.515e-05,0.0,0 STARLINK-4700,1 53722U 22107Y   24136.88385866  .00009515  00000-0  61476-3 0  9996,2 53722  53.2166 349.4836 0001146  85.8707 274.2416 15.08858986 93891,6917.822,95.436,540.48,538.895,0.0
53722.0,STARLINK-4700,PAYLOAD,2024-05-16 13:06:37,15.08858076,0.0001379,53.2183,346.5128,93.6334,266.4816,0.0015907,0.00025131,0.0,0 STARLINK-4700,1 53722U 22107Y   24137.54626274  .00025131  00000-0  15907-2 0  9990,2 53722  53.2183 346.5128 0001379  93.6334 266.4816 15.08858076 93991,6917.825,95.436,540.644,538.736,0.0
53722.0,STARLINK-4700,PAYLOAD,2024-05-16 21:03:32,15.08867028,0.000135,53.2179,345.0265,90.5443,269.5704,0.001331,0.00020974,0.0,0 STARLINK-4700,1 53722U 22107Y   24137.87745775  .00020974  00000-0  13310-2 0  9990,2 53722  53.2179 345.0265 0001350  90.5443 269.5704 15.08867028 94491,6917.798,95.436,540.597,538.729,0.0
53722.0,STARLINK-4700,PAYLOAD,2024-05-17 22:29:43,15.08845873,0.0001772,53.2155,340.265,77.3423,282.7767,0.0013022,0.00020501,0.0,0 STARLINK-4700,1 53722U 22107Y   24138.93730732  .00020501  00000-0  13022-2 0  9991,2 53722  53.2155 340.2650 0001772  77.3423 282.7767 15.08845873 94657,6917.862,95.437,540.953,538.502,0.0
53722.0,STARLINK-4700,PAYLOAD,2024-05-18 12:48:11,15.08847119,0.0001228,53.2145,337.5893,90.8683,269.245,0.00061587,9.529e-05,0.0,0 STARLINK-4700,1 53722U 22107Y   24139.53346382  .00009529  00000-0  61587-3 0  9999,2 53722  53.2145 337.5893 0001228  90.8683 269.2450 15.08847119 94292,6917.859,95.437,540.573,538.874,0.0
53722.0,STARLINK-4700,PAYLOAD,2024-05-18 20:45:06,15.08881423,0.0001536,53.2164,336.104,86.7209,273.3959,0.0017814,0.00028209,0.0,0 STARLINK-4700,1 53722U 22107Y   24139.86465563  .00028209  00000-0  17814-2 0  9997,2 53722  53.2164 336.1040 0001536  86.7209 273.3959 15.08881423 94344,6917.754,95.435,540.681,538.556,0.0
53722.0,STARLINK-4700,PAYLOAD,2024-05-19 12:38:58,15.08839424,0.0001941,53.2156,333.1312,77.766,282.3549,0.0010215,0.00016006,0.0,0 STARLINK-4700,1 53722U 22107Y   24140.52706591  .00016006  00000-0  10215-2 0  9991,2 53722  53.2156 333.1312 0001941  77.7660 282.3549 15.08839424 94894,6917.882,95.438,541.09,538.404,0.0
53722.0,STARLINK-4700,PAYLOAD,2024-05-19 19:00:31,15.08820936,0.0001459,53.2172,331.9371,114.3036,245.8109,0.00074093,0.00011517,0.0,0 STARLINK-4700,1 53722U 22107Y   24140.79202911  .00011517  00000-0  74093-3 0  9994,2 53722  53.2172 331.9371 0001459 114.3036 245.8109 15.08820936 94481,6917.939,95.439,540.813,538.794,0.0
53722.0,STARLINK-4700,PAYLOAD,2024-05-20 12:29:46,15.08840414,0.0001412,53.2183,328.6664,108.1226,251.992,0.0005388,8.298e-05,0.0,0 STARLINK-4700,1 53722U 22107Y   24141.52067238  .00008298  00000-0  53880-3 0  9990,2 53722  53.2183 328.6664 0001412 108.1226 251.9920 15.08840414 95047,6917.879,95.438,540.721,538.767,0.0
53722.0,STARLINK-4700,PAYLOAD,2024-05-20 18:51:18,15.08863037,0.000161,53.2167,327.4795,67.891,292.2253,0.0015191,0.00023986,0.0,0 STARLINK-4700,1 53722U 22107Y   24141.78563176  .00023986  00000-0  15191-2 0  9993,2 53722  53.2167 327.4795 0001610  67.8910 292.2253 15.08863037 94639,6917.81,95.436,540.789,538.561,0.0
53722.0,STARLINK-4700,PAYLOAD,2024-05-21 18:42:05,15.08856132,0.0001137,53.2164,323.0187,73.291,286.8207,0.0012098,0.00019027,0.0,0 STARLINK-4700,1 53722U 22107Y   24142.77922907  .00019027  00000-0  12098-2 0  9998,2 53722  53.2164 323.0187 0001137  73.2910 286.8207 15.08856132 94780,6917.831,95.437,540.483,538.91,0.0
53722.0,STARLINK-4700,PAYLOAD,2024-05-22 12:11:20,15.08836854,0.0001332,53.2169,319.7489,94.8272,265.2872,0.0013356,0.0002103,0.0,0 STARLINK-4700,1 53722U 22107Y   24143.50787346  .00021030  00000-0  13356-2 0  9991,2 53722  53.2169 319.7489 0001332  94.8272 265.2872 15.08836854 94899,6917.89,95.438,540.676,538.834,0.0
53722.0,STARLINK-4700,PAYLOAD,2024-05-23 12:02:07,15.08845977,0.0001405,53.2171,315.2868,329.6946,30.3965,0.00092729,0.00014503,0.0,0 STARLINK-4700,1 53722U 22107Y   24144.50147829  .00014503  00000-0  92729-3 0  9997,2 53722  53.2171 315.2868 0001405 329.6946  30.3965 15.08845977 95040,6917.862,95.437,540.699,538.755,0.0
53722.0,STARLINK-4700,PAYLOAD,2024-05-23 18:23:40,15.08826298,0.0001154,53.2169,314.0985,102.6078,257.5043,-9.5061e-05,-1.8e-05,0.0,0 STARLINK-4700,1 53722U 22107Y   24144.76644126 -.00001800  00000-0 -95061-4 0  9998,2 53722  53.2169 314.0985 0001154 102.6078 257.5043 15.08826298 95089,6917.922,95.438,540.586,538.989,0.0
53722.0,STARLINK-4700,PAYLOAD,2024-05-23 21:34:26,15.08827675,0.0001132,53.2168,313.5011,105.3847,254.727,-8.0097e-05,-1.562e-05,0.0,0 STARLINK-4700,1 53722U 22107Y   24144.89892184 -.00001562  00000-0 -80097-4 0  9999,2 53722  53.2168 313.5011 0001132 105.3847 254.7270 15.08827675 95555,6917.918,95.438,540.566,539.0,0.0
53722.0,STARLINK-4700,PAYLOAD,2024-05-24 16:39:03,15.08849229,0.0001217,53.2177,309.9366,83.2382,276.8749,0.00032493,4.888e-05,0.0,0 STARLINK-4700,1 53722U 22107Y   24145.69379567  .00004888  00000-0  32493-3 0  9991,2 53722  53.2177 309.9366 0001217  83.2382 276.8749 15.08849229 95228,6917.852,95.437,540.559,538.875,0.0
53722.0,STARLINK-4700,PAYLOAD,2024-05-25 10:08:18,15.08839434,6.21e-05,53.2167,306.6631,92.1811,267.9252,0.00024248,3.573e-05,0.0,0 STARLINK-4700,1 53722U 22107Y   24146.42243916  .00003573  00000-0  24248-3 0  9990,2 53722  53.2167 306.6631 0000621  92.1811 267.9252 15.08839434 95339,6917.882,95.438,540.177,539.318,0.0
53722.0,STARLINK-4700,PAYLOAD,2024-05-25 14:54:28,15.08842173,7.3e-05,53.2166,305.7717,75.1235,284.9838,0.00025396,3.757e-05,0.0,0 STARLINK-4700,1 53722U 22107Y   24146.62115846  .00003757  00000-0  25396-3 0  9991,2 53722  53.2166 305.7717 0000730  75.1235 284.9838 15.08842173 95811,6917.874,95.437,540.244,539.234,0.0
53722.0,STARLINK-4700,PAYLOAD,2024-05-25 19:40:37,15.08852937,9.66e-05,53.2168,304.8783,111.2264,248.8832,0.00031611,4.748e-05,0.0,0 STARLINK-4700,1 53722U 22107Y   24146.81987331  .00004748  00000-0  31611-3 0  9996,2 53722  53.2168 304.8783 0000966 111.2264 248.8832 15.08852937 95396,6917.841,95.437,540.374,539.038,0.0
53722.0,STARLINK-4700,PAYLOAD,2024-05-26 03:37:32,15.0884346,7.61e-05,53.2166,303.3936,70.2155,289.8919,-0.00011948,-2.189e-05,0.0,0 STARLINK-4700,1 53722U 22107Y   24147.15107364 -.00002189  00000-0 -11948-3 0  9994,2 53722  53.2166 303.3936 0000761  70.2155 289.8919 15.08843460 95442,6917.87,95.437,540.261,539.208,0.0
53722.0,STARLINK-4700,PAYLOAD,2024-05-26 14:45:13,15.08881681,0.0001651,53.2168,301.3115,104.8942,255.2233,0.0010258,0.00016094,0.0,0 STARLINK-4700,1 53722U 22107Y   24147.61474078  .00016094  00000-0  10258-2 0  9994,2 53722  53.2168 301.3115 0001651 104.8942 255.2233 15.08881681 95968,6917.753,95.435,540.76,538.476,0.0
53722.0,STARLINK-4700,PAYLOAD,2024-05-26 17:55:59,15.08891434,0.0001412,53.2172,300.7165,65.2954,294.8185,0.0010277,0.00016129,0.0,0 STARLINK-4700,1 53722U 22107Y   24147.74721440  .00016129  00000-0  10277-2 0  9996,2 53722  53.2172 300.7165 0001412  65.2954 294.8185 15.08891434 95534,6917.723,95.434,540.565,538.611,0.0
53722.0,STARLINK-4700,PAYLOAD,2024-05-27 14:36:00,15.08845811,0.0001425,53.2175,296.8514,117.4417,242.672,-6.609e-05,-1.34e-05,0.0,0 STARLINK-4700,1 53722U 22107Y   24148.60834195 -.00001340  00000-0 -66090-4 0  9991,2 53722  53.2175 296.8514 0001425 117.4417 242.6720 15.08845811 96117,6917.863,95.437,540.713,538.742,0.0
53722.0,STARLINK-4700,PAYLOAD,2024-05-27 19:22:10,15.08840965,0.000139,53.218,295.9601,119.8074,240.3057,-0.00010692,-1.989e-05,0.0,0 STARLINK-4700,1 53722U 22107Y   24148.80706399 -.00001989  00000-0 -10692-3 0  9992,2 53722  53.2180 295.9601 0001390 119.8074 240.3057 15.08840965 95691,6917.877,95.437,540.704,538.781,0.0
53722.0,STARLINK-4700,PAYLOAD,2024-05-28 14:26:48,15.08843695,0.000145,53.2184,292.3897,100.232,259.8835,-0.00036537,-6.099e-05,0.0,0 STARLINK-4700,1 53722U 22107Y   24149.60194749 -.00006099  00000-0 -36537-3 0  9994,2 53722  53.2184 292.3897 0001450 100.2320 259.8835 15.08843695 96264,6917.869,95.437,540.737,538.731,0.0
53722.0,STARLINK-4700,PAYLOAD,2024-05-28 16:02:11,15.08844942,0.0001525,53.2182,292.092,105.0757,255.0404,-0.00031943,-5.369e-05,0.0,0 STARLINK-4700,1 53722U 22107Y   24149.66818657 -.00005369  00000-0 -31943-3 0  9996,2 53722  53.2182 292.0920 0001525 105.0757 255.0404 15.08844942 96273,6917.865,95.437,540.785,538.675,0.0
53722.0,STARLINK-4700,PAYLOAD,2024-05-29 12:42:12,15.08833369,0.0001513,53.2183,288.227,110.848,249.2674,0.00018083,2.591e-05,0.0,0 STARLINK-4700,1 53722U 22107Y   24150.52931386  .00002591  00000-0  18083-3 0  9990,2 53722  53.2183 288.2270 0001513 110.8480 249.2674 15.08833369 95952,6917.901,95.438,540.812,538.719,0.0
53722.0,STARLINK-4700,PAYLOAD,2024-05-29 14:17:36,15.08835042,0.0001518,53.2177,287.9298,109.5178,250.5978,0.00022775,3.338e-05,0.0,0 STARLINK-4700,1 53722U 22107Y   24150.59555588  .00003338  00000-0  22775-3 0  9996,2 53722  53.2177 287.9298 0001518 109.5178 250.5978 15.08835042 96419,6917.896,95.438,540.811,538.71,0.0
